OBJECT_NAME,OBJECT_ID,EPOCH,MEAN_MOTION,ECCENTRICITY,INCLINATION,RA_OF_ASC_NODE,ARG_OF_PERICENTER,MEAN_ANOMALY,EPHEMERIS_TYPE,CLASSIFICATION_TYPE,NORAD_CAT_ID,ELEMENT_SET_NO,REV_AT_EPOCH,BSTAR,MEAN_MOTION_DOT,MEAN_MOTION_DDOT
STARLINK-36942,2026-040R,2026-06-09T19:47:39.811776,15.33436266,.0001755,97.2832,109.6319,96.5068,263.6375,0,U,68030,999,1558,.90888644E-3,.29374E-3,0
STARLINK-36913,2026-040S,2026-06-09T19:43:45.876000,15.33442786,.000183,97.2843,109.6333,99.0285,261.1165,0,U,68031,999,1558,.43652169E-3,.14043E-3,0
STARLINK-36935,2026-040T,2026-06-09T20:46:23.717856,15.33452344,.00015774,97.2836,109.7316,95.6291,264.5132,0,U,68032,999,1559,.74760504E-3,.24144E-3,0
STARLINK-36947,2026-040U,2026-06-09T19:39:50.302080,15.33458570,.00015431,97.2836,109.6402,96.5837,263.5581,0,U,68033,999,1558,.79065696E-3,.25548E-3,0
STARLINK-36939,2026-040V,2026-06-10T03:14:00.976992,15.33460885,.00014654,97.2833,109.9725,96.0043,264.1367,0,U,68034,999,1563,.82625536E-3,.26708E-3,0
STARLINK-36943,2026-040W,2026-06-10T03:06:10.910880,15.33464753,.0001563,97.2854,109.9872,94.3543,265.7879,0,U,68035,999,1676,.51922411E-3,.16735E-3,0
STARLINK-36906,2026-040X,2026-06-10T03:17:55.862304,15.33460862,.00014185,97.2831,109.9641,97.8226,262.3178,0,U,68036,999,1563,.82317717E-3,.26607E-3,0
STARLINK-36388,2026-040Y,2026-06-10T03:10:05.991456,15.33467029,.00015318,97.2855,109.9772,94.5760,265.5657,0,U,68037,999,1563,.6150248E-3,.19846E-3,0
STARLINK-36895,2026-040Z,2026-06-10T03:21:50.887584,15.33460207,.00010675,97.2839,109.9687,85.1227,275.0137,0,U,68038,999,1563,.72869148E-3,.23534E-3,0
STARLINK-36373,2026-040AA,2026-06-09T19:35:55.656096,15.33453475,.0001551,97.2829,109.6354,100.6307,259.5111,0,U,68039,999,1558,.77055945E-3,.24891E-3,0
STARLINK-36711,2026-041A,2026-06-09T19:26:50.993088,15.34404575,.00011983,53.1596,339.7780,95.6694,264.4445,0,U,68040,999,1552,.63762964E-3,.21231E-3,0
STARLINK-36825,2026-041B,2026-06-10T04:25:23.032704,15.34385416,.00013929,53.1582,337.8214,56.0469,304.0666,0,U,68041,999,1558,.78046915E-3,.26073E-3,0
STARLINK-36925,2026-041C,2026-06-10T04:49:41.737728,15.33573702,.00009738,53.1595,340.0770,77.1419,282.9692,0,U,68042,999,1555,.44245522E-3,.14218E-3,0
STARLINK-36902,2026-041D,2026-06-09T19:06:26.794080,15.34411878,.0001057,53.1600,341.8034,95.1552,264.9571,0,U,68043,999,1549,.73143E-3,.24426E-3,0
STARLINK-36966,2026-041E,2026-06-10T04:31:26.508864,15.34408459,.00006794,53.1579,337.8732,99.1782,260.9297,0,U,68044,999,1558,.69525198E-3,.23193E-3,0
STARLINK-36864,2026-041F,2026-06-10T05:01:44.884992,15.34398922,.00013495,53.1611,337.9998,83.9270,276.1886,0,U,68045,999,1558,.61796995E-3,.20559E-3,0
STARLINK-36321,2026-041G,2026-06-09T18:48:15.975072,15.34406073,.000059,53.1609,341.7333,113.2447,246.8618,0,U,68046,999,1549,.66232E-3,.22072E-3,0
STARLINK-36181,2026-041H,2026-06-10T05:23:36.415392,15.34419882,.00017957,53.1612,339.5011,76.5993,283.5209,0,U,68047,999,1556,.66363583E-3,.22126E-3,0
STARLINK-36318,2026-041J,2026-06-09T18:38:29.865120,15.34413659,.0001078,53.1606,340.2699,72.9962,287.1159,0,U,68048,999,1551,.87887E-3,.29447E-3,0
STARLINK-36885,2026-041K,2026-06-10T04:37:30.423936,15.34410780,.00013183,53.1608,337.8971,72.7076,287.4071,0,U,68049,999,1558,.78333101E-3,.26191E-3,0
STARLINK-36945,2026-041L,2026-06-09T18:23:21.174720,15.34419060,.000107,53.1611,340.1992,62.1625,297.9485,0,U,68050,999,1551,.73089E-3,.24413E-3,0
STARLINK-35911,2026-041M,2026-06-10T04:38:18.754368,15.34373224,.00011485,53.1592,340.0138,95.3473,264.7660,0,U,68051,999,1555,.56115996E-3,.18614E-3,0
STARLINK-35808,2026-041N,2026-06-10T05:35:45.180384,15.34382788,.00013465,53.1607,339.5634,82.1770,277.9385,0,U,68052,999,1556,.95797127E-3,.32111E-3,0
STARLINK-36919,2026-041P,2026-06-10T04:41:20.107104,15.34416920,.0000231,53.1581,340.0251,136.6065,223.4956,0,U,68053,999,1555,.87991576E-3,.29486E-3,0
STARLINK-36924,2026-041Q,2026-06-10T05:16:53.862240,15.34401870,.00012541,53.1601,338.0758,92.8542,267.2605,0,U,68054,999,1558,.93696056E-3,.31415E-3,0
STARLINK-35998,2026-041R,2026-06-09T18:57:21.414816,15.34412752,.0001008,53.1599,341.7699,105.8472,254.2642,0,U,68055,999,1549,.72393E-3,.24172E-3,0
STARLINK-36845,2026-041S,2026-06-09T18:17:17.619936,15.34409905,.00012197,53.1602,340.1716,75.0813,285.0325,0,U,68056,999,1551,.78611466E-3,.26285E-3,0
STARLINK-36954,2026-041T,2026-06-09T19:32:54.518496,15.34401828,.00011832,53.1600,339.7934,89.5005,270.6133,0,U,68057,999,1552,.63890772E-3,.21273E-3,0
STARLINK-36899,2026-041U,2026-06-10T05:17:34.732896,15.34394265,.00009876,53.1616,339.4938,78.7898,281.3216,0,U,68058,999,1556,.57271265E-3,.19019E-3,0
STARLINK-36917,2026-041V,2026-06-10T05:25:58.818144,15.34401611,.00011798,53.1608,338.0963,79.9131,280.2005,0,U,68059,999,1558,.96347553E-3,.32318E-3,0
