STARLINK-36942          
1 68030U 26040R   26160.82476634  .00029374  00000+0  90889-3 0  9995
2 68030  97.2832 109.6319 0001755  96.5068 263.6375 15.33436266 15581
STARLINK-36913          
1 68031U 26040S   26160.82205875  .00014043  00000+0  43652-3 0  9996
2 68031  97.2843 109.6333 0001830  99.0285 261.1165 15.33442786 15587
STARLINK-36935          
1 68032U 26040T   26160.86555229  .00024144  00000+0  74761-3 0  9990
2 68032  97.2836 109.7316 0001577  95.6291 264.5132 15.33452344 15592
STARLINK-36947          
1 68033U 26040U   26160.81933220  .00025548  00000+0  79066-3 0  9999
2 68033  97.2836 109.6402 0001543  96.5837 263.5581 15.33458570 15580
STARLINK-36939          
1 68034U 26040V   26161.13473353  .00026708  00000+0  82626-3 0  9997
2 68034  97.2833 109.9725 0001465  96.0043 264.1367 15.33460885 15633
STARLINK-36943          
1 68035U 26040W   26161.12929295  .00016735  00000+0  51922-3 0  9992
2 68035  97.2854 109.9872 0001563  94.3543 265.7879 15.33464753 16763
STARLINK-36906          
1 68036U 26040X   26161.13745211  .00026607  00000+0  82318-3 0  9990
2 68036  97.2831 109.9641 0001418  97.8226 262.3178 15.33460862 15635
STARLINK-36388          
1 68037U 26040Y   26161.13201379  .00019846  00000+0  61502-3 0  9992
2 68037  97.2855 109.9772 0001531  94.5760 265.5657 15.33467029 15639
STARLINK-36895          
1 68038U 26040Z   26161.14017231  .00023534  00000+0  72869-3 0  9993
2 68038  97.2839 109.9687 0001067  85.1227 275.0137 15.33460207 15635
STARLINK-36373          
1 68039U 26040AA  26160.81661639  .00024891  00000+0  77056-3 0  9994
2 68039  97.2829 109.6354 0001551 100.6307 259.5111 15.33453475 15585
STARLINK-36711          
1 68040U 26041A   26160.81031242  .00021231  00000+0  63763-3 0  9993
2 68040  53.1596 339.7780 0001198  95.6694 264.4445 15.34404575 15524
STARLINK-36825          
1 68041U 26041B   26161.18429436  .00026073  00000+0  78047-3 0  9991
2 68041  53.1582 337.8214 0001392  56.0469 304.0666 15.34385416 15582
STARLINK-36925          
1 68042U 26041C   26161.20117752  .00014218  00000+0  44246-3 0  9992
2 68042  53.1595 340.0770 0000973  77.1419 282.9692 15.33573702 15559
STARLINK-36902          
1 68043U 26041D   26160.79614345  .00024426  00000+0  73143-3 0  9996
2 68043  53.1600 341.8034 0001057  95.1552 264.9571 15.34411878 15496
STARLINK-36966          
1 68044U 26041E   26161.18850126  .00023193  00000+0  69525-3 0  9999
2 68044  53.1579 337.8732 0000679  99.1782 260.9297 15.34408459 15582
STARLINK-36864          
1 68045U 26041F   26161.20954728  .00020559  00000+0  61797-3 0  9992
2 68045  53.1611 337.9998 0001349  83.9270 276.1886 15.34398922 15589
STARLINK-36321          
1 68046U 26041G   26160.78351823  .00022072  00000+0  66232-3 0  9993
2 68046  53.1609 341.7333 0000590 113.2447 246.8618 15.34406073 15497
STARLINK-36181          
1 68047U 26041H   26161.22472703  .00022126  00000+0  66364-3 0  9991
2 68047  53.1612 339.5011 0001795  76.5993 283.5209 15.34419882 15569
STARLINK-36318          
1 68048U 26041J   26160.77673455  .00029447  00000+0  87887-3 0  9994
2 68048  53.1606 340.2699 0001078  72.9962 287.1159 15.34413659 15519
STARLINK-36885          
1 68049U 26041K   26161.19271324  .00026191  00000+0  78333-3 0  9990
2 68049  53.1608 337.8971 0001318  72.7076 287.4071 15.34410780 15583
STARLINK-36945          
1 68050U 26041L   26160.76621730  .00024413  00000+0  73089-3 0  9992
2 68050  53.1611 340.1992 0001070  62.1625 297.9485 15.34419060 15515
STARLINK-35911          
1 68051U 26041M   26161.19327262  .00018614  00000+0  56116-3 0  9992
2 68051  53.1592 340.0138 0001148  95.3473 264.7660 15.34373224 15552
STARLINK-35808          
1 68052U 26041N   26161.23316181  .00032111  00000+0  95797-3 0  9992
2 68052  53.1607 339.5634 0001346  82.1770 277.9385 15.34382788 15564
STARLINK-36919          
1 68053U 26041P   26161.19537161  .00029486  00000+0  87992-3 0  9990
2 68053  53.1581 340.0251 0000231 136.6065 223.4956 15.34416920 15557
STARLINK-36924          
1 68054U 26041Q   26161.22006785  .00031415  00000+0  93696-3 0  9991
2 68054  53.1601 338.0758 0001254  92.8542 267.2605 15.34401870 15587
STARLINK-35998          
1 68055U 26041R   26160.78983119  .00024172  00000+0  72393-3 0  9990
2 68055  53.1599 341.7699 0001008 105.8472 254.2642 15.34412752 15491
STARLINK-36845          
1 68056U 26041S   26160.76200949  .00026285  00000+0  78611-3 0  9998
2 68056  53.1602 340.1716 0001219  75.0813 285.0325 15.34409905 15510
STARLINK-36954          
1 68057U 26041T   26160.81451989  .00021273  00000+0  63891-3 0  9993
2 68057  53.1600 339.7934 0001183  89.5005 270.6133 15.34401828 15522
STARLINK-36899          
1 68058U 26041U   26161.22054089  .00019019  00000+0  57271-3 0  9990
2 68058  53.1616 339.4938 0000987  78.7898 281.3216 15.34394265 15563
STARLINK-36917          
1 68059U 26041V   26161.22637521  .00032318  00000+0  96348-3 0  9994
2 68059  53.1608 338.0963 0001179  79.9131 280.2005 15.34401611 15585
